[{"OBJECT_NAME":"STARLINK-34265","OBJECT_ID":"2025-113Y","EPOCH":"2026-03-09T07:09:01.362816","MEAN_MOTION":15.30167557,"ECCENTRICITY":0.00013724,"INCLINATION":53.1593,"RA_OF_ASC_NODE":93.0568,"ARG_OF_PERICENTER":91.8934,"MEAN_ANOMALY":268.2224,"EPHEMERIS_TYPE":0,"CLASSIFICATION_TYPE":"U","NORAD_CAT_ID":64192,"ELEMENT_SET_NO":999,"REV_AT_EPOCH":4496,"BSTAR":0.00043840183,"MEAN_MOTION_DOT":0.00012634,"MEAN_MOTION_DDOT":0},{"OBJECT_NAME":"NOAA 17 DEB","OBJECT_ID":"2002-032AF","EPOCH":"2026-03-09T00:24:06.552000","MEAN_MOTION":15.25501717,"ECCENTRICITY":0.00030847,"INCLINATION":98.6472,"RA_OF_ASC_NODE":92.5947,"ARG_OF_PERICENTER":165.9893,"MEAN_ANOMALY":194.1428,"EPHEMERIS_TYPE":0,"CLASSIFICATION_TYPE":"U","NORAD_CAT_ID":48614,"ELEMENT_SET_NO":999,"REV_AT_EPOCH":26420,"BSTAR":0.01090047,"MEAN_MOTION_DOT":0.00286783,"MEAN_MOTION_DDOT":0}]
